[{"OBJECT_NAME":"STARLINK-5159","OBJECT_ID":"2022-125L","EPOCH":"2026-03-09T15:46:17.865408","MEAN_MOTION":15.08823838,"ECCENTRICITY":0.00012082,"INCLINATION":53.2175,"RA_OF_ASC_NODE":203.8701,"ARG_OF_PERICENTER":88.2022,"MEAN_ANOMALY":271.9108,"EPHEMERIS_TYPE":0,"CLASSIFICATION_TYPE":"U","NORAD_CAT_ID":53974,"ELEMENT_SET_NO":999,"REV_AT_EPOCH":18960,"BSTAR":0.00021710418,"MEAN_MOTION_DOT":3.168e-5,"MEAN_MOTION_DDOT":0},{"OBJECT_NAME":"CZ-4B DEB","OBJECT_ID":"2006-015F","EPOCH":"2026-03-09T03:45:22.603968","MEAN_MOTION":14.99561687,"ECCENTRICITY":0.00700337,"INCLINATION":97.7654,"RA_OF_ASC_NODE":137.4599,"ARG_OF_PERICENTER":35.4601,"MEAN_ANOMALY":355.3004,"EPHEMERIS_TYPE":0,"CLASSIFICATION_TYPE":"U","NORAD_CAT_ID":29539,"ELEMENT_SET_NO":999,"REV_AT_EPOCH":5458,"BSTAR":0.0013707202,"MEAN_MOTION_DOT":0.00017712,"MEAN_MOTION_DDOT":0}]
